IRIDIUM 39              
1 25042U 97069D   25318.77952382  .00001344  00000+0  34518-3 0  9991
2 25042  86.3908 146.6241 0018384 157.2131 202.9893 14.49442535470776
IRIDIUM 38              
1 25043U 97069E   25318.52327954  .00000861  00000+0  27692-3 0  9994
2 25043  86.3983 169.9714 0001964  29.2199 330.9109 14.38276398467566
IRIDIUM 42              
1 25077U 97077A   25318.36621128  .00000576  00000+0  18963-3 0  9996
2 25077  86.3997 176.3869 0002083  64.1803 295.9608 14.36498969462752
IRIDIUM 44              
1 25078U 97077B   25318.54036772  .00000841  00000+0  25879-3 0  9991
2 25078  86.3969 157.8564 0000525 144.9456 215.1778 14.40397551465348
IRIDIUM 45              
1 25104U 97082A   25318.09805517  .00045012  00000+0  13288-2 0  9997
2 25104  86.3550 334.7726 0104610 126.5062 234.5879 15.29432451474893
IRIDIUM 24              
1 25105U 97082B   25318.45743273  .00001019  00000+0  30299-3 0  9999
2 25105  86.3941  16.5494 0009471 307.8249  52.2093 14.42289632464870
IRIDIUM 51              
1 25262U 98018A   25318.78556758  .00085487  00000+0  11130-2 0  9992
2 25262  86.3770 340.5295 0061262  29.4867 330.9827 15.56173285470298
IRIDIUM 57              
1 25273U 98019B   25318.41225215  .00000885  00000+0  29803-3 0  9992
2 25273  86.3942  82.2698 0001945  90.6200 269.5220 14.36018770446348
